{"type":"FeatureCollection","features":[{"type": "Feature", "geometry": {"type": "Point", "coordinates": [3.0839524153393, 50.64651137837]}, "properties": {"commune": "LILLE", "code_postal": "59000", "objectid": "979", "url": "http://hopital-prive-la-louviere-lille.ramsaygds.fr/", "libelle": "POLYCLINIQUE LA LOUVIERE", "geo_point_2d": [50.6465113784, 3.08395241534]}},{"type": "Feature", "geometry": {"type": "Point", "coordinates": [3.197768849979, 50.682616137418]}, "properties": {"commune": "ROUBAIX", "code_postal": "59100", "objectid": "1428", "url": "http://www.ch-roubaix.fr", "libelle": "HOPITAL DE LA FRATERNITE", "geo_point_2d": [50.6826161374, 3.19776884998]}},{"type": "Feature", "geometry": {"type": "Point", "coordinates": [3.115016521002, 50.732764203664]}, "properties": {"commune": "RONCQ", "code_postal": "59223", "objectid": "1395", "url": "http://www.clinique-saintroch.fr/", "libelle": "CLINIQUE SAINT ROCH", "geo_point_2d": [50.7327642037, 3.115016521]}},{"type": "Feature", "geometry": {"type": "Point", "coordinates": [2.867836606694, 50.684677901903]}, "properties": {"commune": "ARMENTIERES", "code_postal": "59280", "objectid": "184", "url": "http://www.ch-armentieres.fr", "libelle": "CHR CENTRE HOSPITALIER", "geo_point_2d": [50.6846779019, 2.86783660669]}},{"type": "Feature", "geometry": {"type": "Point", "coordinates": [3.1480043388737, 50.724650885578]}, "properties": {"commune": "TOURCOING", "code_postal": "59200", "objectid": "1734", "url": "http://www.groupehpm.com/cliniques/index/87", "libelle": "POLYCLINIQUE DU VAL DE LYS", "geo_point_2d": [50.7246508856, 3.14800433887]}},{"type": "Feature", "geometry": {"type": "Point", "coordinates": [3.0771792776184, 50.620238091599]}, "properties": {"commune": "LILLE", "code_postal": "59000", "objectid": "4238", "url": "http://www.saintvincentdepaul-lille.fr/", "libelle": "HOPITAL SAINT VINCENT DE PAUL GROUPE INSTITUT CATHOLIQUE", "geo_point_2d": [50.6202380916, 3.07717927762]}},{"type": "Feature", "geometry": {"type": "Point", "coordinates": [3.0178100510722, 50.54664145579]}, "properties": {"commune": "SECLIN", "code_postal": "59113", "objectid": "1571", "url": "http://www.ch-seclin.fr/index/1/1", "libelle": "CHR CENTRE HOSPITALIER DE SECLIN", "geo_point_2d": [50.5466414558, 3.01781005107]}},{"type": "Feature", "geometry": {"type": "Point", "coordinates": [3.0894868271423, 50.588897155281]}, "properties": {"commune": "LESQUIN", "code_postal": "59810", "objectid": "830", "url": "http://www.groupehpm.com/clinique-lille-sud", "libelle": "CLINIQUE LILLE SUD SOS MAINS HPM", "geo_point_2d": [50.5888971553, 3.08948682714]}},{"type": "Feature", "geometry": {"type": "Point", "coordinates": [3.1015500890599, 50.666496024961]}, "properties": {"commune": "MARCQ-EN-BAROEUL", "code_postal": "59700", "objectid": "1168", "url": "http://www.clinique-sport-lille.fr/", "libelle": "CLINIQUE DU SPORT ET DE CHIRURGIE ORTHOPEDIQUE HPM", "geo_point_2d": [50.666496025, 3.10155008906]}},{"type": "Feature", "geometry": {"type": "Point", "coordinates": [3.0315362399364, 50.633910815113]}, "properties": {"commune": "LILLE", "code_postal": "59000", "objectid": "3350", "url": "http://www.polyclinique-bois.com", "libelle": "HOPITAL PRIVE LE BOIS", "geo_point_2d": [50.6339108151, 3.03153623994]}},{"type": "Feature", "geometry": {"type": "Point", "coordinates": [3.007890732357, 50.610567295391]}, "properties": {"commune": "LOOS", "code_postal": "59120", "objectid": "1095", "url": "http://www.ghlh.fr", "libelle": "CHR CENTRE HOSPITALIER LOOS HAUBOURDIN", "geo_point_2d": [50.6105672954, 3.00789073236]}},{"type": "Feature", "geometry": {"type": "Point", "coordinates": [3.1566224550655, 50.716458768421]}, "properties": {"commune": "TOURCOING", "code_postal": "59200", "objectid": "5619", "url": "http://www.groupehpm.com/clinique-victoire-tourcoing", "libelle": "CLINIQUE DE LA VICTOIRE HPM", "geo_point_2d": [50.7164587684, 3.15662245507]}},{"type": "Feature", "geometry": {"type": "Point", "coordinates": [3.1521857919809, 50.653010425216]}, "properties": {"commune": "VILLENEUVE D'ASCQ", "code_postal": "59650", "objectid": "2109", "url": "http://www.generale-de-sante.fr/hopital-prive-de-villeneuve-d-ascq", "libelle": "HOPITAL PRIVE DE VILLENEUVE D'ASCQ", "geo_point_2d": [50.6530104252, 3.15218579198]}},{"type": "Feature", "geometry": {"type": "Point", "coordinates": [3.1802901785553, 50.744644307373]}, "properties": {"commune": "TOURCOING", "code_postal": "59200", "objectid": "1668", "url": "http://www.ch-tourcoing.fr", "libelle": "CENTRE HOSPITALIER GUSTAVE DRON", "geo_point_2d": [50.7446443074, 3.18029017856]}},{"type": "Feature", "geometry": {"type": "Point", "coordinates": [3.2220152228126, 50.700749035758]}, "properties": {"commune": "WATTRELOS", "code_postal": "59150", "objectid": "1877", "url": "http://www.ch-wattrelos.com", "libelle": "CENTRE HOSPITALIER", "geo_point_2d": [50.7007490358, 3.22201522281]}},{"type": "Feature", "geometry": {"type": "Point", "coordinates": [3.1738283246326, 50.679169333955]}, "properties": {"commune": "ROUBAIX", "code_postal": "59100", "objectid": "1410", "url": "http://www.ch-roubaix.fr", "libelle": "CENTRE HOSPITALIER DE ROUBAIX VICTOR PROVO", "geo_point_2d": [50.679169334, 3.17382832463]}},{"type": "Feature", "geometry": {"type": "Point", "coordinates": [2.9867346234108, 50.61301285066]}, "properties": {"commune": "HAUBOURDIN", "code_postal": "59320", "objectid": "6229", "url": "http://www.ghlh.fr", "libelle": "CENTRE HOSPITALIER JEAN LUXEMBOURG", "geo_point_2d": [50.6130128507, 2.98673462341]}},{"type": "Feature", "geometry": {"type": "Point", "coordinates": [2.9731517882953, 50.651394711752]}, "properties": {"commune": "(LOMME) LILLE", "code_postal": "59160", "objectid": "1036", "url": "http://www.saintphilibert-lomme.fr/", "libelle": "HOPITAL SAINT PHILIBERT GROUPE INSTITUT CATHOLIQUE", "geo_point_2d": [50.6513947118, 2.9731517883]}},{"type": "Feature", "geometry": {"type": "Point", "coordinates": [3.178288786343, 50.685912854851]}, "properties": {"commune": "ROUBAIX", "libelle": "CLINIQUE SAINT JEAN", "code_postal": "59100", "geo_point_2d": [50.6859128549, 3.17828878634], "objectid": "1416"}},{"type": "Feature", "geometry": {"type": "Point", "coordinates": [2.9923404297026, 50.65389134502]}, "properties": {"commune": "(LOMME) LILLE", "code_postal": "59160", "objectid": "3857", "url": "http://www.clinique-mitterie.com", "libelle": "CLINIQUE DE LA MITTERIE", "geo_point_2d": [50.653891345, 2.9923404297]}},{"type": "Feature", "geometry": {"type": "Point", "coordinates": [3.0854991221233, 50.649147300325]}, "properties": {"commune": "LILLE", "code_postal": "59000", "objectid": "4259", "url": "http://www.groupehpm.com/clinique-ambroisepare-lille", "libelle": "CLINIQUE AMBROISE PARE HPM", "geo_point_2d": [50.6491473003, 3.08549912212]}},{"type": "Feature", "geometry": {"type": "Point", "coordinates": [3.0359684078101, 50.60866967145]}, "properties": {"commune": "LILLE", "code_postal": "59000", "objectid": "5538", "url": "http://www.chru-lille.fr", "libelle": "CENTRE HOSPITALIER REGIONAL ET UNIVERSITAIRE", "geo_point_2d": [50.6086696715, 3.03596840781]}}]}